[{"OBJECT_NAME":"ONEWEB-0502","OBJECT_ID":"2022-138H","EPOCH":"2025-10-13T05:11:59.271936","MEAN_MOTION":13.19724115,"ECCENTRICITY":0.00019021,"INCLINATION":87.9278,"RA_OF_ASC_NODE":354.0668,"ARG_OF_PERICENTER":103.886,"MEAN_ANOMALY":256.2485,"EPHEMERIS_TYPE":0,"CLASSIFICATION_TYPE":"U","NORAD_CAT_ID":54120,"ELEMENT_SET_NO":999,"REV_AT_EPOCH":14425,"BSTAR":0.00027322675,"MEAN_MOTION_DOT":1.22e-6,"MEAN_MOTION_DDOT":0},{"OBJECT_NAME":"ONEWEB-0503","OBJECT_ID":"2022-138J","EPOCH":"2025-10-13T04:56:03.231744","MEAN_MOTION":13.19724051,"ECCENTRICITY":0.00016831,"INCLINATION":87.9278,"RA_OF_ASC_NODE":354.0738,"ARG_OF_PERICENTER":93.5558,"MEAN_ANOMALY":266.5767,"EPHEMERIS_TYPE":0,"CLASSIFICATION_TYPE":"U","NORAD_CAT_ID":54121,"ELEMENT_SET_NO":999,"REV_AT_EPOCH":14424,"BSTAR":-3.1667745e-5,"MEAN_MOTION_DOT":0,"MEAN_MOTION_DDOT":0},{"OBJECT_NAME":"ONEWEB-0504","OBJECT_ID":"2022-138K","EPOCH":"2025-10-13T04:37:51.705120","MEAN_MOTION":13.19723837,"ECCENTRICITY":0.00015837,"INCLINATION":87.9278,"RA_OF_ASC_NODE":354.0935,"ARG_OF_PERICENTER":104.1254,"MEAN_ANOMALY":256.0055,"EPHEMERIS_TYPE":0,"CLASSIFICATION_TYPE":"U","NORAD_CAT_ID":54122,"ELEMENT_SET_NO":999,"REV_AT_EPOCH":14425,"BSTAR":-2.1022255e-5,"MEAN_MOTION_DOT":5.0e-8,"MEAN_MOTION_DDOT":0},{"OBJECT_NAME":"ONEWEB-0505","OBJECT_ID":"2022-138L","EPOCH":"2025-10-13T06:22:29.955072","MEAN_MOTION":13.19727208,"ECCENTRICITY":0.00015631,"INCLINATION":87.9278,"RA_OF_ASC_NODE":354.0672,"ARG_OF_PERICENTER":116.5458,"MEAN_ANOMALY":243.5835,"EPHEMERIS_TYPE":0,"CLASSIFICATION_TYPE":"U","NORAD_CAT_ID":54123,"ELEMENT_SET_NO":999,"REV_AT_EPOCH":14424,"BSTAR":7.1042627e-5,"MEAN_MOTION_DOT":4.1e-7,"MEAN_MOTION_DDOT":0},{"OBJECT_NAME":"ONEWEB-0506","OBJECT_ID":"2022-138M","EPOCH":"2025-10-13T05:46:06.096576","MEAN_MOTION":13.19723989,"ECCENTRICITY":0.00017726,"INCLINATION":87.9277,"RA_OF_ASC_NODE":354.0693,"ARG_OF_PERICENTER":103.3839,"MEAN_ANOMALY":256.7491,"EPHEMERIS_TYPE":0,"CLASSIFICATION_TYPE":"U","NORAD_CAT_ID":54124,"ELEMENT_SET_NO":999,"REV_AT_EPOCH":14423,"BSTAR":0.00018375523,"MEAN_MOTION_DOT":8.6e-7,"MEAN_MOTION_DDOT":0},{"OBJECT_NAME":"ONEWEB-0507","OBJECT_ID":"2022-138N","EPOCH":"2025-10-13T06:15:39.881664","MEAN_MOTION":13.19723679,"ECCENTRICITY":0.00018375,"INCLINATION":87.9258,"RA_OF_ASC_NODE":354.111,"ARG_OF_PERICENTER":106.4966,"MEAN_ANOMALY":253.6369,"EPHEMERIS_TYPE":0,"CLASSIFICATION_TYPE":"U","NORAD_CAT_ID":54125,"ELEMENT_SET_NO":999,"REV_AT_EPOCH":14428,"BSTAR":3.3414887e-5,"MEAN_MOTION_DOT":2.6e-7,"MEAN_MOTION_DDOT":0},{"OBJECT_NAME":"ONEWEB-0508","OBJECT_ID":"2022-138P","EPOCH":"2025-10-13T06:11:07.464192","MEAN_MOTION":13.19724374,"ECCENTRICITY":0.00018262,"INCLINATION":87.927,"RA_OF_ASC_NODE":354.0993,"ARG_OF_PERICENTER":111.9403,"MEAN_ANOMALY":248.1924,"EPHEMERIS_TYPE":0,"CLASSIFICATION_TYPE":"U","NORAD_CAT_ID":54126,"ELEMENT_SET_NO":999,"REV_AT_EPOCH":14426,"BSTAR":5.8538295e-5,"MEAN_MOTION_DOT":3.6e-7,"MEAN_MOTION_DDOT":0},{"OBJECT_NAME":"ONEWEB-0509","OBJECT_ID":"2022-138Q","EPOCH":"2025-10-13T05:34:43.025952","MEAN_MOTION":13.19727313,"ECCENTRICITY":0.00017945,"INCLINATION":87.9277,"RA_OF_ASC_NODE":354.0694,"ARG_OF_PERICENTER":103.8759,"MEAN_ANOMALY":256.2574,"EPHEMERIS_TYPE":0,"CLASSIFICATION_TYPE":"U","NORAD_CAT_ID":54127,"ELEMENT_SET_NO":999,"REV_AT_EPOCH":14423,"BSTAR":-0.00052568676,"MEAN_MOTION_DOT":-1.98e-6,"MEAN_MOTION_DDOT":0},{"OBJECT_NAME":"ONEWEB-0510","OBJECT_ID":"2022-138R","EPOCH":"2025-10-13T03:56:39.973920","MEAN_MOTION":13.20773101,"ECCENTRICITY":0.00022409,"INCLINATION":87.9217,"RA_OF_ASC_NODE":323.7015,"ARG_OF_PERICENTER":83.1074,"MEAN_ANOMALY":277.0314,"EPHEMERIS_TYPE":0,"CLASSIFICATION_TYPE":"U","NORAD_CAT_ID":54128,"ELEMENT_SET_NO":999,"REV_AT_EPOCH":14667,"BSTAR":-0.00017187783,"MEAN_MOTION_DOT":-5.7e-7,"MEAN_MOTION_DDOT":0},{"OBJECT_NAME":"ONEWEB-0511","OBJECT_ID":"2022-138S","EPOCH":"2025-10-13T05:30:10.997280","MEAN_MOTION":13.19724734,"ECCENTRICITY":0.0001639,"INCLINATION":87.9273,"RA_OF_ASC_NODE":354.0741,"ARG_OF_PERICENTER":94.6576,"MEAN_ANOMALY":265.4744,"EPHEMERIS_TYPE":0,"CLASSIFICATION_TYPE":"U","NORAD_CAT_ID":54129,"ELEMENT_SET_NO":999,"REV_AT_EPOCH":14426,"BSTAR":0.00014071485,"MEAN_MOTION_DOT":6.9e-7,"MEAN_MOTION_DDOT":0},{"OBJECT_NAME":"ONEWEB-0512","OBJECT_ID":"2022-138T","EPOCH":"2025-10-13T05:18:48.339648","MEAN_MOTION":13.19724192,"ECCENTRICITY":0.00015996,"INCLINATION":87.9257,"RA_OF_ASC_NODE":354.1102,"ARG_OF_PERICENTER":109.4134,"MEAN_ANOMALY":250.7172,"EPHEMERIS_TYPE":0,"CLASSIFICATION_TYPE":"U","NORAD_CAT_ID":54130,"ELEMENT_SET_NO":999,"REV_AT_EPOCH":14423,"BSTAR":0.00014579569,"MEAN_MOTION_DOT":7.1e-7,"MEAN_MOTION_DDOT":0},{"OBJECT_NAME":"ONEWEB-0513","OBJECT_ID":"2022-138U","EPOCH":"2025-10-13T06:05:49.928640","MEAN_MOTION":13.20316837,"ECCENTRICITY":0.00012602,"INCLINATION":87.9281,"RA_OF_ASC_NODE":354.0644,"ARG_OF_PERICENTER":104.1315,"MEAN_ANOMALY":255.9958,"EPHEMERIS_TYPE":0,"CLASSIFICATION_TYPE":"U","NORAD_CAT_ID":54131,"ELEMENT_SET_NO":999,"REV_AT_EPOCH":14413,"BSTAR":2.4701916e-5,"MEAN_MOTION_DOT":2.3e-7,"MEAN_MOTION_DDOT":0},{"OBJECT_NAME":"ONEWEB-0514","OBJECT_ID":"2022-138V","EPOCH":"2025-10-13T05:41:33.147744","MEAN_MOTION":13.19727182,"ECCENTRICITY":0.00018872,"INCLINATION":87.9279,"RA_OF_ASC_NODE":354.0861,"ARG_OF_PERICENTER":95.7602,"MEAN_ANOMALY":264.3745,"EPHEMERIS_TYPE":0,"CLASSIFICATION_TYPE":"U","NORAD_CAT_ID":54132,"ELEMENT_SET_NO":999,"REV_AT_EPOCH":14425,"BSTAR":4.6185678e-5,"MEAN_MOTION_DOT":3.1e-7,"MEAN_MOTION_DDOT":0},{"OBJECT_NAME":"ONEWEB-0515","OBJECT_ID":"2022-138W","EPOCH":"2025-10-13T03:38:28.862880","MEAN_MOTION":13.20772257,"ECCENTRICITY":0.00027482,"INCLINATION":87.9223,"RA_OF_ASC_NODE":323.6851,"ARG_OF_PERICENTER":94.6629,"MEAN_ANOMALY":265.4818,"EPHEMERIS_TYPE":0,"CLASSIFICATION_TYPE":"U","NORAD_CAT_ID":54133,"ELEMENT_SET_NO":999,"REV_AT_EPOCH":14669,"BSTAR":-0.0010142979,"MEAN_MOTION_DOT":-3.99e-6,"MEAN_MOTION_DDOT":0},{"OBJECT_NAME":"ONEWEB-0516","OBJECT_ID":"2022-138X","EPOCH":"2025-10-13T05:05:09.750624","MEAN_MOTION":13.19727607,"ECCENTRICITY":0.00018881,"INCLINATION":87.9258,"RA_OF_ASC_NODE":354.1172,"ARG_OF_PERICENTER":104.825,"MEAN_ANOMALY":255.3092,"EPHEMERIS_TYPE":0,"CLASSIFICATION_TYPE":"U","NORAD_CAT_ID":54134,"ELEMENT_SET_NO":999,"REV_AT_EPOCH":14425,"BSTAR":0.00019754499,"MEAN_MOTION_DOT":9.2e-7,"MEAN_MOTION_DDOT":0},{"OBJECT_NAME":"ONEWEB-0517","OBJECT_ID":"2022-138Y","EPOCH":"2025-10-13T06:24:45.249696","MEAN_MOTION":13.19728201,"ECCENTRICITY":0.00016429,"INCLINATION":87.928,"RA_OF_ASC_NODE":354.0756,"ARG_OF_PERICENTER":92.6923,"MEAN_ANOMALY":267.4398,"EPHEMERIS_TYPE":0,"CLASSIFICATION_TYPE":"U","NORAD_CAT_ID":54135,"ELEMENT_SET_NO":999,"REV_AT_EPOCH":14426,"BSTAR":5.4033454e-5,"MEAN_MOTION_DOT":3.5e-7,"MEAN_MOTION_DDOT":0},{"OBJECT_NAME":"ONEWEB-0518","OBJECT_ID":"2022-138Z","EPOCH":"2025-10-13T05:02:52.563840","MEAN_MOTION":13.19724045,"ECCENTRICITY":0.0001784,"INCLINATION":87.926,"RA_OF_ASC_NODE":354.1192,"ARG_OF_PERICENTER":104.452,"MEAN_ANOMALY":255.6811,"EPHEMERIS_TYPE":0,"CLASSIFICATION_TYPE":"U","NORAD_CAT_ID":54136,"ELEMENT_SET_NO":999,"REV_AT_EPOCH":14425,"BSTAR":0.00013582425,"MEAN_MOTION_DOT":6.7e-7,"MEAN_MOTION_DDOT":0}]
