ONEWEB-0502             
1 54120U 22138H   25286.21665824  .00000122  00000+0  27323-3 0  9999
2 54120  87.9278 354.0668 0001902 103.8860 256.2485 13.19724115144257
ONEWEB-0503             
1 54121U 22138J   25286.20559296  .00000000  00000+0 -31668-4 0  9998
2 54121  87.9278 354.0738 0001683  93.5558 266.5767 13.19724051144246
ONEWEB-0504             
1 54122U 22138K   25286.19295955  .00000005  00000+0 -21022-4 0  9994
2 54122  87.9278 354.0935 0001583 104.1254 256.0055 13.19723837144253
ONEWEB-0505             
1 54123U 22138L   25286.26562448  .00000041  00000+0  71043-4 0  9994
2 54123  87.9278 354.0672 0001563 116.5458 243.5835 13.19727208144245
ONEWEB-0506             
1 54124U 22138M   25286.24034834  .00000086  00000+0  18376-3 0  9994
2 54124  87.9277 354.0693 0001772 103.3839 256.7491 13.19723989144232
ONEWEB-0507             
1 54125U 22138N   25286.26087826  .00000026  00000+0  33415-4 0  9992
2 54125  87.9258 354.1110 0001837 106.4966 253.6369 13.19723679144285
ONEWEB-0508             
1 54126U 22138P   25286.25772528  .00000036  00000+0  58538-4 0  9996
2 54126  87.9270 354.0993 0001826 111.9403 248.1924 13.19724374144260
ONEWEB-0509             
1 54127U 22138Q   25286.23244243 -.00000198  00000+0 -52569-3 0  9991
2 54127  87.9277 354.0694 0001794 103.8759 256.2574 13.19727313144238
ONEWEB-0510             
1 54128U 22138R   25286.16435155 -.00000057  00000+0 -17188-3 0  9990
2 54128  87.9217 323.7015 0002240  83.1074 277.0314 13.20773101146671
ONEWEB-0511             
1 54129U 22138S   25286.22929395  .00000069  00000+0  14071-3 0  9991
2 54129  87.9273 354.0741 0001639  94.6576 265.4744 13.19724734144269
ONEWEB-0512             
1 54130U 22138T   25286.22139282  .00000071  00000+0  14580-3 0  9999
2 54130  87.9257 354.1102 0001599 109.4134 250.7172 13.19724192144232
ONEWEB-0513             
1 54131U 22138U   25286.25405010  .00000023  00000+0  24702-4 0  9993
2 54131  87.9281 354.0644 0001260 104.1315 255.9958 13.20316837144131
ONEWEB-0514             
1 54132U 22138V   25286.23718921  .00000031  00000+0  46186-4 0  9999
2 54132  87.9279 354.0861 0001887  95.7602 264.3745 13.19727182144257
ONEWEB-0515             
1 54133U 22138W   25286.15172295 -.00000399  00000+0 -10143-2 0  9990
2 54133  87.9223 323.6851 0002748  94.6629 265.4818 13.20772257146690
ONEWEB-0516             
1 54134U 22138X   25286.21191841  .00000092  00000+0  19754-3 0  9992
2 54134  87.9258 354.1172 0001888 104.8250 255.3092 13.19727607144251
ONEWEB-0517             
1 54135U 22138Y   25286.26719039  .00000035  00000+0  54033-4 0  9990
2 54135  87.9280 354.0756 0001642  92.6923 267.4398 13.19728201144268
ONEWEB-0518             
1 54136U 22138Z   25286.21033060  .00000067  00000+0  13582-3 0  9997
2 54136  87.9260 354.1192 0001784 104.4520 255.6811 13.19724045144254
